start=new Date('2023-05-27T00:00:00.000Z').valueOf();
sats=[{"MEAN_MOTION_DOT":"-0.00000082","ARG_OF_PERICENTER":"92.0546","REV_AT_EPOCH":"4087","SEMIMAJOR_AXIS":"6917.872","REF_FRAME":"TEME","MEAN_MOTION_DDOT":"0.0000000000000","FILE":"3917630","MEAN_ELEMENT_THEORY":"SGP4","BSTAR":"0.00001291200000","PERIAPSIS":"539.077","MEAN_ANOMALY":"268.0555","EPHEMERIS_TYPE":"0","DECAY_DATE":null,"NORAD_CAT_ID":"53737","COUNTRY_CODE":"US","RA_OF_ASC_NODE":"155.0957","TIME_SYSTEM":"UTC","EPOCH":"2023-05-26T10:26:25.999296","INCLINATION":"53.2148","OBJECT_TYPE":"PAYLOAD","TLE_LINE2":"2 53737  53.2148 155.0957 0000954  92.0546 268.0555 15.08842904 40877","APOAPSIS":"540.396","GP_ID":"232555651","OBJECT_NAME":"STARLINK-4646","ECCENTRICITY":"0.00009540","TLE_LINE1":"1 53737U 22107AP  23146.43502314 -.00000082  00000-0  12912-4 0  9995","SITE":"AFETR","OBJECT_ID":"2022-107AP","LAUNCH_DATE":"2022-09-05","ELEMENT_SET_NO":"999","CENTER_NAME":"EARTH","MEAN_MOTION":"15.08842904","CLASSIFICATION_TYPE":"U","RCS_SIZE":"LARGE","PERIOD":"95.437"},{"RCS_SIZE":"LARGE","CLASSIFICATION_TYPE":"U","PERIOD":"95.437","MEAN_MOTION":"15.08843942","ELEMENT_SET_NO":"999","LAUNCH_DATE":"2022-09-05","CENTER_NAME":"EARTH","TLE_LINE1":"1 53738U 22107AQ  23146.29517445  .00000819  00000-0  69515-4 0  9999","OBJECT_ID":"2022-107AQ","SITE":"AFETR","APOAPSIS":"540.465","GP_ID":"232556401","OBJECT_NAME":"STARLINK-4662","ECCENTRICITY":"0.00010570","OBJECT_TYPE":"PAYLOAD","TLE_LINE2":"2 53738  53.2152 155.6436 0001057  88.7335 271.3778 15.08843942 40703","INCLINATION":"53.2152","TIME_SYSTEM":"UTC","EPOCH":"2023-05-26T07:05:03.072480","RA_OF_ASC_NODE":"155.6436","COUNTRY_CODE":"US","DECAY_DATE":null,"EPHEMERIS_TYPE":"0","NORAD_CAT_ID":"53738","MEAN_ANOMALY":"271.3778","PERIAPSIS":"539.002","BSTAR":"0.00006951500000","MEAN_ELEMENT_THEORY":"SGP4","FILE":"3917630","MEAN_MOTION_DDOT":"0.0000000000000","REV_AT_EPOCH":"4070","REF_FRAME":"TEME","SEMIMAJOR_AXIS":"6917.868","ARG_OF_PERICENTER":"88.7335","MEAN_MOTION_DOT":"0.00000819"},{"MEAN_MOTION_DDOT":"0.0000000000000","FILE":"3917630","ARG_OF_PERICENTER":"80.4763","MEAN_MOTION_DOT":"0.00000290","REV_AT_EPOCH":"4087","REF_FRAME":"TEME","SEMIMAJOR_AXIS":"6917.876","MEAN_ANOMALY":"279.6330","COUNTRY_CODE":"US","RA_OF_ASC_NODE":"155.1181","DECAY_DATE":null,"NORAD_CAT_ID":"53740","EPHEMERIS_TYPE":"0","BSTAR":"0.00003632600000","MEAN_ELEMENT_THEORY":"SGP4","PERIAPSIS":"539.122","OBJECT_TYPE":"PAYLOAD","TLE_LINE2":"2 53740  53.2149 155.1181 0000896  80.4763 279.6330 15.08841292 40877","APOAPSIS":"540.361","GP_ID":"232554650","OBJECT_NAME":"STARLINK-4607","ECCENTRICITY":"0.00008960","TIME_SYSTEM":"UTC","EPOCH":"2023-05-26T10:31:44.404896","INCLINATION":"53.2149","MEAN_MOTION":"15.08841292","RCS_SIZE":"LARGE","CLASSIFICATION_TYPE":"U","PERIOD":"95.437","TLE_LINE1":"1 53740U 22107AS  23146.43870839  .00000290  00000-0  36326-4 0  9994","OBJECT_ID":"2022-107AS","SITE":"AFETR","ELEMENT_SET_NO":"999","LAUNCH_DATE":"2022-09-05","CENTER_NAME":"EARTH"},{"REV_AT_EPOCH":"4107","REF_FRAME":"TEME","SEMIMAJOR_AXIS":"6917.888","ARG_OF_PERICENTER":"80.2472","MEAN_MOTION_DOT":"-0.00000238","FILE":"3917630","MEAN_MOTION_DDOT":"0.0000000000000","PERIAPSIS":"538.918","BSTAR":"0.00000315830000","MEAN_ELEMENT_THEORY":"SGP4","COUNTRY_CODE":"US","RA_OF_ASC_NODE":"140.3917","DECAY_DATE":null,"NORAD_CAT_ID":"53741","EPHEMERIS_TYPE":"0","MEAN_ANOMALY":"279.8656","INCLINATION":"53.2161","TIME_SYSTEM":"UTC","EPOCH":"2023-05-26T08:25:15.532608","GP_ID":"232554900","APOAPSIS":"540.588","OBJECT_NAME":"STARLINK-4614","ECCENTRICITY":"0.00012070","OBJECT_TYPE":"PAYLOAD","TLE_LINE2":"2 53741  53.2161 140.3917 0001207  80.2472 279.8656 15.08837462 41077","ELEMENT_SET_NO":"999","LAUNCH_DATE":"2022-09-05","CENTER_NAME":"EARTH","TLE_LINE1":"1 53741U 22107AT  23146.35087422 -.00000238  00000-0  31583-5 0  9998","OBJECT_ID":"2022-107AT","SITE":"AFETR","RCS_SIZE":"LARGE","CLASSIFICATION_TYPE":"U","PERIOD":"95.438","MEAN_MOTION":"15.08837462"},{"MEAN_MOTION_DDOT":"0.0000000000000","FILE":"3917630","ARG_OF_PERICENTER":"77.1326","MEAN_MOTION_DOT":"0.00000129","REV_AT_EPOCH":"4085","REF_FRAME":"TEME","SEMIMAJOR_AXIS":"6917.883","MEAN_ANOMALY":"282.9780","COUNTRY_CODE":"US","RA_OF_ASC_NODE":"155.7374","NORAD_CAT_ID":"53742","DECAY_DATE":null,"EPHEMERIS_TYPE":"0","BSTAR":"0.00002619400000","MEAN_ELEMENT_THEORY":"SGP4","PERIAPSIS":"539.043","OBJECT_TYPE":"PAYLOAD","TLE_LINE2":"2 53742  53.2154 155.7374 0001019  77.1326 282.9780 15.08839125 40857","APOAPSIS":"540.453","GP_ID":"232556151","OBJECT_NAME":"STARLINK-4637","ECCENTRICITY":"0.00010190","TIME_SYSTEM":"UTC","EPOCH":"2023-05-26T07:26:16.659456","INCLINATION":"53.2154","MEAN_MOTION":"15.08839125","RCS_SIZE":"LARGE","CLASSIFICATION_TYPE":"U","PERIOD":"95.438","TLE_LINE1":"1 53742U 22107AU  23146.30991504  .00000129  00000-0  26194-4 0  9998","OBJECT_ID":"2022-107AU","SITE":"AFETR","LAUNCH_DATE":"2022-09-05","ELEMENT_SET_NO":"999","CENTER_NAME":"EARTH"},{"SITE":"AFETR","OBJECT_ID":"2022-107AV","TLE_LINE1":"1 53743U 22107AV  23146.39090620  .00001958  00000-0  14107-3 0  9998","CENTER_NAME":"EARTH","LAUNCH_DATE":"2022-09-05","ELEMENT_SET_NO":"999","MEAN_MOTION":"15.08842637","PERIOD":"95.437","CLASSIFICATION_TYPE":"U","RCS_SIZE":"LARGE","EPOCH":"2023-05-26T09:22:54.295680","TIME_SYSTEM":"UTC","INCLINATION":"53.2153","TLE_LINE2":"2 53743  53.2153 155.5291 0001043  76.4875 283.6234 15.08842637 40866","OBJECT_TYPE":"PAYLOAD","ECCENTRICITY":"0.00010430","OBJECT_NAME":"STARLINK-4645","GP_ID":"232555902","APOAPSIS":"540.459","MEAN_ELEMENT_THEORY":"SGP4","BSTAR":"0.00014107000000","PERIAPSIS":"539.016","MEAN_ANOMALY":"283.6234","DECAY_DATE":null,"NORAD_CAT_ID":"53743","EPHEMERIS_TYPE":"0","RA_OF_ASC_NODE":"155.5291","COUNTRY_CODE":"US","MEAN_MOTION_DOT":"0.00001958","ARG_OF_PERICENTER":"76.4875","SEMIMAJOR_AXIS":"6917.872","REF_FRAME":"TEME","REV_AT_EPOCH":"4086","MEAN_MOTION_DDOT":"0.0000000000000","FILE":"3917630"},{"MEAN_ELEMENT_THEORY":"SGP4","BSTAR":"0.00007808400000","PERIAPSIS":"538.948","MEAN_ANOMALY":"267.6448","EPHEMERIS_TYPE":"0","DECAY_DATE":null,"NORAD_CAT_ID":"53744","RA_OF_ASC_NODE":"156.0611","COUNTRY_CODE":"US","MEAN_MOTION_DOT":"0.00000955","ARG_OF_PERICENTER":"92.4676","REV_AT_EPOCH":"4084","SEMIMAJOR_AXIS":"6917.875","REF_FRAME":"TEME","MEAN_MOTION_DDOT":"0.0000000000000","FILE":"3917630","TLE_LINE1":"1 53744U 22107AW  23146.24831765  .00000955  00000-0  78084-4 0  9997","SITE":"AFETR","OBJECT_ID":"2022-107AW","ELEMENT_SET_NO":"999","LAUNCH_DATE":"2022-09-05","CENTER_NAME":"EARTH","MEAN_MOTION":"15.08841815","CLASSIFICATION_TYPE":"U","RCS_SIZE":"LARGE","PERIOD":"95.437","TIME_SYSTEM":"UTC","EPOCH":"2023-05-26T05:57:34.644960","INCLINATION":"53.2153","OBJECT_TYPE":"PAYLOAD","TLE_LINE2":"2 53744  53.2153 156.0611 0001145  92.4676 267.6448 15.08841815 40843","GP_ID":"232555150","OBJECT_NAME":"STARLINK-4670","APOAPSIS":"540.532","ECCENTRICITY":"0.00011450"},{"MEAN_ELEMENT_THEORY":"SGP4","BSTAR":"0.00001535400000","PERIAPSIS":"538.980","MEAN_ANOMALY":"264.1864","EPHEMERIS_TYPE":"0","DECAY_DATE":null,"NORAD_CAT_ID":"53745","COUNTRY_CODE":"US","RA_OF_ASC_NODE":"156.1469","MEAN_MOTION_DOT":"-0.00000043","ARG_OF_PERICENTER":"95.9257","REV_AT_EPOCH":"4084","SEMIMAJOR_AXIS":"6917.892","REF_FRAME":"TEME","MEAN_MOTION_DDOT":"0.0000000000000","FILE":"3917630","TLE_LINE1":"1 53745U 22107AX  23146.26210320 -.00000043  00000-0  15354-4 0  9998","SITE":"AFETR","OBJECT_ID":"2022-107AX","LAUNCH_DATE":"2022-09-05","ELEMENT_SET_NO":"999","CENTER_NAME":"EARTH","MEAN_MOTION":"15.08836112","CLASSIFICATION_TYPE":"U","RCS_SIZE":"LARGE","PERIOD":"95.438","TIME_SYSTEM":"UTC","EPOCH":"2023-05-26T06:17:25.716480","INCLINATION":"53.2151","OBJECT_TYPE":"PAYLOAD","TLE_LINE2":"2 53745  53.2151 156.1469 0001124  95.9257 264.1864 15.08836112 40842","OBJECT_NAME":"STARLINK-4656","GP_ID":"232555400","APOAPSIS":"540.535","ECCENTRICITY":"0.00011240"},{"FILE":"3917630","MEAN_MOTION_DDOT":"0.0000000000000","SEMIMAJOR_AXIS":"6917.880","REF_FRAME":"TEME","REV_AT_EPOCH":"4087","MEAN_MOTION_DOT":"0.00000835","ARG_OF_PERICENTER":"86.2880","DECAY_DATE":null,"NORAD_CAT_ID":"53746","EPHEMERIS_TYPE":"0","RA_OF_ASC_NODE":"155.2093","COUNTRY_CODE":"US","MEAN_ANOMALY":"273.8232","PERIAPSIS":"539.022","MEAN_ELEMENT_THEORY":"SGP4","BSTAR":"0.00007055500000","ECCENTRICITY":"0.00010450","APOAPSIS":"540.468","GP_ID":"232555652","OBJECT_NAME":"STARLINK-4589","TLE_LINE2":"2 53746  53.2155 155.2093 0001045  86.2880 273.8232 15.08840007 40874","OBJECT_TYPE":"PAYLOAD","INCLINATION":"53.2155","EPOCH":"2023-05-26T10:52:58.034208","TIME_SYSTEM":"UTC","PERIOD":"95.438","CLASSIFICATION_TYPE":"U","RCS_SIZE":"LARGE","MEAN_MOTION":"15.08840007","CENTER_NAME":"EARTH","ELEMENT_SET_NO":"999","LAUNCH_DATE":"2022-09-05","SITE":"AFETR","OBJECT_ID":"2022-107AY","TLE_LINE1":"1 53746U 22107AY  23146.45344947  .00000835  00000-0  70555-4 0  9995"},{"MEAN_MOTION":"15.08836882","PERIOD":"95.438","RCS_SIZE":"LARGE","CLASSIFICATION_TYPE":"U","OBJECT_ID":"2022-107BA","SITE":"AFETR","TLE_LINE1":"1 53748U 22107BA  23146.46450784  .00000452  00000-0  46450-4 0  9997","CENTER_NAME":"EARTH","ELEMENT_SET_NO":"999","LAUNCH_DATE":"2022-09-05","TLE_LINE2":"2 53748  53.2148 155.2778 0001001  88.3434 271.7673 15.08836882 40870","OBJECT_TYPE":"PAYLOAD","ECCENTRICITY":"0.00010010","GP_ID":"232556402","OBJECT_NAME":"STARLINK-4669","APOAPSIS":"540.447","EPOCH":"2023-05-26T11:08:53.477376","TIME_SYSTEM":"UTC","INCLINATION":"53.2148","MEAN_ANOMALY":"271.7673","COUNTRY_CODE":"US","RA_OF_ASC_NODE":"155.2778","NORAD_CAT_ID":"53748","DECAY_DATE":null,"EPHEMERIS_TYPE":"0","BSTAR":"0.00004645000000","MEAN_ELEMENT_THEORY":"SGP4","PERIAPSIS":"539.062","MEAN_MOTION_DDOT":"0.0000000000000","FILE":"3917630","ARG_OF_PERICENTER":"88.3434","MEAN_MOTION_DOT":"0.00000452","REF_FRAME":"TEME","SEMIMAJOR_AXIS":"6917.890","REV_AT_EPOCH":"4087"}];
